[{"OBJECT_NAME":"ONEWEB-0704","OBJECT_ID":"2024-188R","EPOCH":"2026-06-26T07:24:21.007872","MEAN_MOTION":13.10375256,"ECCENTRICITY":0.0002548,"INCLINATION":87.8828,"RA_OF_ASC_NODE":34.438,"ARG_OF_PERICENTER":105.4225,"MEAN_ANOMALY":254.7184,"EPHEMERIS_TYPE":0,"CLASSIFICATION_TYPE":"U","NORAD_CAT_ID":61609,"ELEMENT_SET_NO":999,"REV_AT_EPOCH":8448,"BSTAR":-0.0016143,"MEAN_MOTION_DOT":-5.51e-6,"MEAN_MOTION_DDOT":0},{"OBJECT_NAME":"ONEWEB-0705","OBJECT_ID":"2024-188S","EPOCH":"2026-06-26T13:01:32.147616","MEAN_MOTION":13.10369361,"ECCENTRICITY":0.000279,"INCLINATION":87.8829,"RA_OF_ASC_NODE":34.3973,"ARG_OF_PERICENTER":90.4247,"MEAN_ANOMALY":269.72,"EPHEMERIS_TYPE":0,"CLASSIFICATION_TYPE":"U","NORAD_CAT_ID":61610,"ELEMENT_SET_NO":999,"REV_AT_EPOCH":7668,"BSTAR":-0.0011679,"MEAN_MOTION_DOT":-3.95e-6,"MEAN_MOTION_DDOT":0},{"OBJECT_NAME":"ONEWEB-0706","OBJECT_ID":"2024-188T","EPOCH":"2026-06-26T14:29:31.928064","MEAN_MOTION":13.10371131,"ECCENTRICITY":0.0002296,"INCLINATION":87.8825,"RA_OF_ASC_NODE":34.3896,"ARG_OF_PERICENTER":95.6936,"MEAN_ANOMALY":264.4453,"EPHEMERIS_TYPE":0,"CLASSIFICATION_TYPE":"U","NORAD_CAT_ID":61611,"ELEMENT_SET_NO":999,"REV_AT_EPOCH":8461,"BSTAR":0.0009016,"MEAN_MOTION_DOT":3.27e-6,"MEAN_MOTION_DDOT":0},{"OBJECT_NAME":"ONEWEB-0707","OBJECT_ID":"2024-188U","EPOCH":"2026-06-26T12:49:19.923168","MEAN_MOTION":13.10375619,"ECCENTRICITY":0.000234,"INCLINATION":87.8834,"RA_OF_ASC_NODE":34.398,"ARG_OF_PERICENTER":96.0899,"MEAN_ANOMALY":264.0495,"EPHEMERIS_TYPE":0,"CLASSIFICATION_TYPE":"U","NORAD_CAT_ID":61612,"ELEMENT_SET_NO":999,"REV_AT_EPOCH":8454,"BSTAR":-0.001351,"MEAN_MOTION_DOT":-4.59e-6,"MEAN_MOTION_DDOT":0},{"OBJECT_NAME":"ONEWEB-0708","OBJECT_ID":"2024-188V","EPOCH":"2026-06-26T13:16:14.316672","MEAN_MOTION":13.10371088,"ECCENTRICITY":0.000236,"INCLINATION":87.8812,"RA_OF_ASC_NODE":34.4115,"ARG_OF_PERICENTER":77.6933,"MEAN_ANOMALY":282.4458,"EPHEMERIS_TYPE":0,"CLASSIFICATION_TYPE":"U","NORAD_CAT_ID":61613,"ELEMENT_SET_NO":999,"REV_AT_EPOCH":8452,"BSTAR":0.001349,"MEAN_MOTION_DOT":4.84e-6,"MEAN_MOTION_DDOT":0}]
